1 27424U 02022A   12059.84237221  .00000510  00000-0  12326-3 0  2256
2 27424 098.2254 001.9124 0001297 080.7029 279.4334 14.57113426522446